NORAD_CAT_ID,OBJECT_NAME,OBJECT_TYPE,EPOCH,MEAN_MOTION,ECCENTRICITY,INCLINATION,RA_OF_ASC_NODE,ARG_OF_PERICENTER,MEAN_ANOMALY,BSTAR,MEAN_MOTION_DOT,MEAN_MOTION_DDOT,TLE_LINE0,TLE_LINE1,TLE_LINE2,SEMIMAJOR_AXIS,PERIOD,APOGEE,PERIGEE,DECAYED
53292.0,STARLINK-4159,PAYLOAD,2022-12-13 07:55:02,15.08839629,0.0001865,53.2195,91.929,38.5738,321.5387,-9.9951e-05,-1.879e-05,0.0,0 STARLINK-4159,1 53292U 22086BC  22347.32989247 -.00001879  00000-0 -99951-4 0  9995,2 53292  53.2195  91.9290 0001865  38.5738 321.5387 15.08839629 22534,6917.882,95.438,541.0369999999998,538.456,0.0
53292.0,STARLINK-4159,PAYLOAD,2022-12-13 14:16:35,15.08842811,0.0001817,53.2203,90.7395,40.6601,319.4527,3.1897e-05,2.2e-06,0.0,0 STARLINK-4159,1 53292U 22086BC  22347.59485321  .00000220  00000-0  31897-4 0  9990,2 53292  53.2203  90.7395 0001817  40.6601 319.4527 15.08842811 22738,6917.871999999999,95.437,540.994,538.48,0.0
53292.0,STARLINK-4159,PAYLOAD,2022-12-13 17:27:21,15.08844193,0.0001886,53.22,90.1445,37.8643,322.2482,3.5761e-05,2.81e-06,0.0,0 STARLINK-4159,1 53292U 22086BC  22347.72733166  .00000281  00000-0  35761-4 0  9999,2 53292  53.2200  90.1445 0001886  37.8643 322.2482 15.08844193 22754,6917.868,95.437,541.0369999999998,538.428,0.0
53292.0,STARLINK-4159,PAYLOAD,2022-12-14 10:56:35,15.08844929,0.000204,53.2204,86.8738,45.3457,314.7701,7.0815e-05,8.39e-06,0.0,0 STARLINK-4159,1 53292U 22086BC  22348.45596975  .00000839  00000-0  70815-4 0  9993,2 53292  53.2204  86.8738 0002040  45.3457 314.7701 15.08844929 22864,6917.865,95.437,541.1419999999998,538.319,0.0
53292.0,STARLINK-4159,PAYLOAD,2022-12-14 15:42:45,15.08835935,0.0001877,53.2201,85.9826,41.7347,318.3788,3.6667e-05,2.95e-06,0.0,0 STARLINK-4159,1 53292U 22086BC  22348.65469616  .00000295  00000-0  36667-4 0  9999,2 53292  53.2201  85.9826 0001877  41.7347 318.3788 15.08835935 22732,6917.893,95.438,541.056,538.4590000000002,0.0
53292.0,STARLINK-4159,PAYLOAD,2022-12-15 13:58:09,15.08846532,0.0002017,53.2206,81.8186,38.5987,321.5149,0.00010097,1.319e-05,0.0,0 STARLINK-4159,1 53292U 22086BC  22349.58204943  .00001319  00000-0  10097-3 0  9998,2 53292  53.2206  81.8186 0002017  38.5987 321.5149 15.08846532 22879,6917.86,95.437,541.121,538.33,0.0
53292.0,STARLINK-4159,PAYLOAD,2022-12-15 15:33:32,15.08847973,0.0002106,53.2203,81.5212,37.3541,322.7598,0.00011778,1.587e-05,0.0,0 STARLINK-4159,1 53292U 22086BC  22349.64828846  .00001587  00000-0  11778-3 0  9993,2 53292  53.2203  81.5212 0002106  37.3541 322.7598 15.08847973 23046,6917.856,95.437,541.178,538.264,0.0
53292.0,STARLINK-4159,PAYLOAD,2022-12-16 12:13:32,15.08850011,0.00021,53.2199,77.6565,32.1895,327.9225,9.0544e-05,1.153e-05,0.0,0 STARLINK-4159,1 53292U 22086BC  22350.50940534  .00001153  00000-0  90544-4 0  9997,2 53292  53.2199  77.6565 0002100  32.1895 327.9225 15.08850011 23171,6917.85,95.437,541.168,538.262,0.0
53292.0,STARLINK-4159,PAYLOAD,2022-12-16 18:35:05,15.08847496,0.0002236,53.2206,76.4685,28.4664,331.645,7.889899999999999e-05,9.68e-06,0.0,0 STARLINK-4159,1 53292U 22086BC  22350.77436615  .00000968  00000-0  78899-4 0  9998,2 53292  53.2206  76.4685 0002236  28.4664 331.6450 15.08847496 23054,6917.857,95.437,541.269,538.1759999999998,0.0
53292.0,STARLINK-4159,PAYLOAD,2022-12-16 23:21:15,15.08832462,0.0002112,53.2196,75.5746,34.6225,325.4904,-1.9499e-05,-5.98e-06,0.0,0 STARLINK-4159,1 53292U 22086BC  22350.97309478 -.00000598  00000-0 -19499-4 0  9998,2 53292  53.2196  75.5746 0002112  34.6225 325.4904 15.08832462 23080,6917.903,95.438,541.229,538.307,0.0
53292.0,STARLINK-4159,PAYLOAD,2022-12-17 12:04:20,15.08837175,0.0002187,53.2198,73.1953,39.8834,320.2319,-4.288e-06,-3.57e-06,0.0,0 STARLINK-4159,1 53292U 22086BC  22351.50301730 -.00000357  00000-0 -42880-5 0  9995,2 53292  53.2198  73.1953 0002187  39.8834 320.2319 15.08837175 23327,6917.889,95.438,541.2669999999998,538.241,0.0
53292.0,STARLINK-4159,PAYLOAD,2022-12-17 16:50:29,15.08840305,0.0002104,53.2203,72.3033,37.6142,322.4997,2.0133e-05,3.2e-07,0.0,0 STARLINK-4159,1 53292U 22086BC  22351.70173522  .00000032  00000-0  20133-4 0  9997,2 53292  53.2203  72.3033 0002104  37.6142 322.4997 15.08840305 23359,6917.879,95.438,541.2,538.289,0.0
53292.0,STARLINK-4159,PAYLOAD,2022-12-18 05:33:34,15.08845067,0.0002157,53.2204,69.9249,38.4255,321.689,2.2985e-05,7.8e-07,0.0,0 STARLINK-4159,1 53292U 22086BC  22352.23165287  .00000078  00000-0  22985-4 0  9992,2 53292  53.2204  69.9249 0002157  38.4255 321.6890 15.08845067 23277,6917.865,95.437,541.222,538.238,0.0
53292.0,STARLINK-4159,PAYLOAD,2022-12-18 11:55:07,15.08839864,0.000222,53.2211,68.7372,30.3132,329.7989,2.6255e-07,-2.84e-06,0.0,0 STARLINK-4159,1 53292U 22086BC  22352.49661669 -.00000284  00000-0  26255-6 0  9991,2 53292  53.2211  68.7372 0002220  30.3132 329.7989 15.08839864 23473,6917.880999999999,95.438,541.2819999999998,538.21,0.0
53292.0,STARLINK-4159,PAYLOAD,2022-12-18 13:30:32,15.08810428,0.0001518,53.2208,68.4403,23.333,336.7731,-0.00023298,-3.991e-05,0.0,0 STARLINK-4159,1 53292U 22086BC  22352.56287836 -.00003991  00000-0 -23298-3 0  9999,2 53292  53.2208  68.4403 0001518  23.3330 336.7731 15.08810428 23324,6917.971,95.439,540.886,538.786,0.0
53292.0,STARLINK-4159,PAYLOAD,2022-12-19 08:35:09,15.08827591,0.0002057,53.2201,64.8696,42.1007,318.0143,6.9304e-05,8.15e-06,0.0,0 STARLINK-4159,1 53292U 22086BC  22353.35774889  .00000815  00000-0  69304-4 0  9995,2 53292  53.2201  64.8696 0002057  42.1007 318.0143 15.08827591 23442,6917.918000000002,95.438,541.206,538.36,0.0
53292.0,STARLINK-4159,PAYLOAD,2022-12-19 16:32:04,15.08835989,0.0002188,53.2215,63.3835,36.3165,323.7976,0.0001073,1.42e-05,0.0,0 STARLINK-4159,1 53292U 22086BC  22353.68894555  .00001420  00000-0  10730-3 0  9995,2 53292  53.2215  63.3835 0002188  36.3165 323.7976 15.08835989 23651,6917.893,95.438,541.271,538.244,0.0
53292.0,STARLINK-4159,PAYLOAD,2022-12-19 21:18:15,15.08822524,0.0002307,53.221,62.4915,37.1946,322.9206,-4.7489e-05,-1.044e-05,0.0,0 STARLINK-4159,1 53292U 22086BC  22353.88767878 -.00001044  00000-0 -47489-4 0  9990,2 53292  53.2210  62.4915 0002307  37.1946 322.9206 15.08822524 23528,6917.934,95.439,541.395,538.203,0.0
53292.0,STARLINK-4159,PAYLOAD,2022-12-20 11:36:42,15.08839895,0.0002175,53.2207,59.8158,34.1822,325.931,0.00011868,1.601e-05,0.0,0 STARLINK-4159,1 53292U 22086BC  22354.48382779  .00001601  00000-0  11868-3 0  9998,2 53292  53.2207  59.8158 0002175  34.1822 325.9310 15.08839895 23614,6917.880999999999,95.438,541.25,538.241,0.0
53292.0,STARLINK-4159,PAYLOAD,2022-12-21 05:05:58,15.08826095,0.0002309,53.2199,56.5456,40.601,319.5154,2.8175e-05,1.6e-06,0.0,0 STARLINK-4159,1 53292U 22086BC  22355.21248075  .00000160  00000-0  28175-4 0  9999,2 53292  53.2199  56.5456 0002309  40.6010 319.5154 15.08826095 23724,6917.9230000000025,95.438,541.385,538.191,0.0
53292.0,STARLINK-4159,PAYLOAD,2022-12-21 09:52:07,15.08831896,0.0002177,53.2213,55.6528,47.5079,312.6097,0.00011905,1.607e-05,0.0,0 STARLINK-4159,1 53292U 22086BC  22355.41119926  .00001607  00000-0  11905-3 0  9992,2 53292  53.2213  55.6528 0002177  47.5079 312.6097 15.08831896 23911,6917.905,95.438,541.276,538.264,0.0
53292.0,STARLINK-4159,PAYLOAD,2022-12-21 14:38:16,15.08839038,0.0002277,53.2201,54.7616,41.9947,318.1219,0.00019918,2.883e-05,0.0,0 STARLINK-4159,1 53292U 22086BC  22355.60991592  .00002883  00000-0  19918-3 0  9999,2 53292  53.2201  54.7616 0002277  41.9947 318.1219 15.08839038 23787,6917.8830000000025,95.438,541.3240000000002,538.173,0.0
53292.0,STARLINK-4159,PAYLOAD,2022-12-22 12:53:40,15.08842625,0.0002282,53.2199,50.5983,42.2697,317.8471,8.1763e-05,1.013e-05,0.0,0 STARLINK-4159,1 53292U 22086BC  22356.53727360  .00001013  00000-0  81763-4 0  9994,2 53292  53.2199  50.5983 0002282  42.2697 317.8471 15.08842625 24082,6917.871999999999,95.437,541.316,538.159,0.0
53292.0,STARLINK-4159,PAYLOAD,2022-12-23 12:44:28,15.08832513,0.0002136,53.2211,46.1415,43.5106,316.6054,-2.0014e-05,-6.07e-06,0.0,0 STARLINK-4159,1 53292U 22086BC  22357.53088563 -.00000607  00000-0 -20014-4 0  9992,2 53292  53.2211  46.1415 0002136  43.5106 316.6054 15.08832513 24073,6917.903,95.438,541.246,538.2909999999998,0.0
53292.0,STARLINK-4159,PAYLOAD,2022-12-23 17:30:38,15.08828843,0.0002087,53.2205,45.2457,41.783,318.3322,-8.4148e-05,-1.627e-05,0.0,0 STARLINK-4159,1 53292U 22086BC  22357.72960970 -.00001627  00000-0 -84148-4 0  9995,2 53292  53.2205  45.2457 0002087  41.7830 318.3322 15.08828843 24260,6917.9140000000025,95.438,541.2230000000002,538.336,0.0
53292.0,STARLINK-4159,PAYLOAD,2022-12-24 03:02:55,15.08844426,0.0001591,53.2211,43.458,47.3618,312.7509,1.4797e-05,-5.2e-07,0.0,0 STARLINK-4159,1 53292U 22086BC  22358.12703527 -.00000052  00000-0  14797-4 0  9996,2 53292  53.2211  43.4580 0001591  47.3618 312.7509 15.08844426 24168,6917.8669999999975,95.437,540.832,538.631,0.0
53292.0,STARLINK-4159,PAYLOAD,2022-12-24 09:24:27,15.08850351,0.0002132,53.2204,42.2754,34.4884,325.6246,8.8102e-05,1.115e-05,0.0,0 STARLINK-4159,1 53292U 22086BC  22358.39198928  .00001115  00000-0  88102-4 0  9999,2 53292  53.2204  42.2754 0002132  34.4884 325.6246 15.08850351 24361,6917.849,95.437,541.189,538.239,0.0
53292.0,STARLINK-4159,PAYLOAD,2022-12-24 12:35:14,15.08850175,0.0002086,53.2204,41.6803,36.1918,323.9215,8.1675e-05,1.012e-05,0.0,0 STARLINK-4159,1 53292U 22086BC  22358.52446855  .00001012  00000-0  81675-4 0  9993,2 53292  53.2204  41.6803 0002086  36.1918 323.9215 15.08850175 24220,6917.849,95.437,541.1569999999998,538.271,0.0
53292.0,STARLINK-4159,PAYLOAD,2022-12-24 20:32:09,15.08846782,0.0002098,53.2206,40.1931,35.3035,324.8096,9.329e-05,1.197e-05,0.0,0 STARLINK-4159,1 53292U 22086BC  22358.85566862  .00001197  00000-0  93290-4 0  9990,2 53292  53.2206  40.1931 0002098  35.3035 324.8096 15.08846782 24431,6917.86,95.437,541.1759999999998,538.273,0.0
